COSMOS 2503             
1 40420U 15009A   26068.69626972  .00002817  00000+0  19590-3 0  9998
2 40420  97.8437 123.7175 0015321 225.7450 134.2520 15.06275973603958
STARLINK-3545           
1 51855U 22022D   26068.30434210  .00002979  00000+0  20509-3 0  9996
2 51855  53.2201  20.7719 0001180  82.2196 277.8930 15.08856005222913
